MOLNIYA 2-9             
1 07276U 74026A   20071.96686043 -.00000076  00000-0 -13792-2 0  9992
2 07276  63.9585 356.4848 6821948 288.4808  12.6125  2.45096074229078
MOLNIYA 2-10            
1 07376U 74056A   20068.11417284  .00000208  00000-0  00000-0 0  9999
2 07376  63.5024 178.8314 6761392 293.0160  11.6352  2.01063880333647
MOLNIYA 1-S             
1 07392U 74060A   20073.73497130 -.00000198  00000-0  00000-0 0  9993
2 07392   7.1042 294.7888 0007718 176.6241  50.7200  1.00203147111244
MOLNIYA 1-29            
1 07780U 75036A   20073.74129386 -.00000209  00000-0 -86113-3 0  9990
2 07780  62.8931 326.3000 7409117 287.6142   9.4179  2.00653536329088
MOLNIYA 2-14            
1 08195U 75081A   20069.80479692  .00001478  00000-0 -50320-3 0  9990
2 08195  63.0194 293.3518 7333648 292.4393   8.8168  2.02070040326181
MOLNIYA 1-32            
1 08601U 76006A   20070.12733140  .00001666  00000-0  12124-2 0  9995
2 08601  62.5511  65.7187 7389835 277.9452  11.6745  1.99988978 36124
MOLNIYA 1-36            
1 09880U 77021A   20073.84215460 -.00001622  00000-0  19254-3 0  9990
2 09880  62.4206  37.3134 7482887 283.3044   9.8983  2.00793714212898
MOLNIYA 3-8             
1 10455U 77105A   20073.16215860 -.00000451  00000-0 -91375-2 0  9995
2 10455  62.3083 124.5835 7232561 275.7149  13.3235  2.00825963310565
MOLNIYA 1-40            
1 10925U 78055A   20072.30744992  .00000595  00000-0 -66108-2 0  9994
2 10925  62.4972 159.0407 7042077 277.9411  14.0304  2.00706565306094
MOLNIYA 3-10            
1 11057U 78095A   20073.79020470  .00000478  00000-0  10644-3 0  9991
2 11057  62.7635 354.3710 5966498 296.6814  15.1940  4.09559996349902
MOLNIYA 3-13            
1 11896U 80063A   20072.51835184  .00000227  00000-0 -29010-2 0  9994
2 11896  62.5913 242.1102 7199158 275.2587  13.5864  2.00665753290520
MOLNIYA 1-49            
1 12156U 81009A   20070.84128112  .00001141  00000-0  41469-5 0  9995
2 12156  62.2507 288.7641 7238061 251.3276  22.9883  2.05691883204446
MOLNIYA 1-52            
1 13012U 81123A   20072.98308557  .00000599  00000-0  00000-0 0  9991
2 13012  63.5595  40.7778 7227271 248.4794  24.9354  2.00396372279996
MOLNIYA 1-53            
1 13070U 82015A   20073.17160422 -.00001806  00000-0  60006-4 0  9994
2 13070  62.3543 336.6440 7487932 274.6986  11.8683  2.00535181278687
MOLNIYA 3-20            
1 13875U 83015A   20070.69070344  .00001359  00000-0  38742-1 0  9996
2 13875  63.5176 113.0542 7096628 255.6593 348.8057  2.00544885207126
MOLNIYA 1-56            
1 13890U 83019A   20072.29851410  .00001235  00000-0  00000+0 0  9993
2 13890  63.2122 137.6628 7077784 260.4411  31.7645  1.99850955270073
MOLNIYA 1-62            
1 15214U 84089A   20072.30660778  .00001508  00000-0  85838-2 0  9998
2 15214  62.7196 146.2921 7239753 264.4373  17.0040  1.97932517227889
MOLNIYA 1-63            
1 15429U 84124A   20072.53661681 -.00000474  00000-0  00000-0 0  9993
2 15429  63.7162 244.9232 6625506 267.1101  64.4892  2.00360453258171
MOLNIYA 3-24            
1 15738U 85040A   20071.59603823  .00000120  00000-0 -13382-1 0  9999
2 15738  63.8705 220.8426 6460244 252.9795 208.3672  2.55628516282745
MOLNIYA 3-27            
1 16393U 85117A   20072.48479096  .00000159  00000-0  00000+0 0  9996
2 16393  64.6595 175.0609 6510559 258.3010  27.0038  2.12399366256630
MOLNIYA 1-69            
1 17078U 86089A   20069.23918390  .00000577  00000-0 -62991-1 0  9994
2 17078  64.1482 266.5729 6750625 266.8827 331.0231  2.00692667244176
MOLNIYA 3-31            
1 17328U 87008A   20070.46680552  .00000475  00000-0  00000-0 0  9995
2 17328  63.8367 215.3390 6695590 261.5185  23.3213  2.00640721239232
MOLNIYA 1-71            
1 18946U 88017A   20070.45558016 -.00000080  00000-0 -58607-1 0  9992
2 18946  63.5352 216.6373 6823958 261.9879  37.3260  2.00614465234463
MOLNIYA 1-75            
1 19807U 89014A   20071.97606505  .00001141  00000-0  27431-1 0  9990
2 19807  64.2702  23.4085 7049057 271.9167  15.9933  2.00240639227484
MOLNIYA 1-80            
1 21118U 91012A   20070.35874070  .00000169  00000-0  00000+0 0  9994
2 21118  64.2122  67.9170 6854587 286.8414  12.7154  2.05237725213984
MOLNIYA 3-40            
1 21196U 91022A   20070.30401948  .00000136  00000-0  00000+0 0  9990
2 21196  64.3973  60.8276 6890134 283.8601  13.3330  2.02994466212821
MOLNIYA 1-81            
1 21426U 91043A   20071.09165724  .00000098  00000-0  00000-0 0  9993
2 21426  63.9682  87.5310 6963359 272.5644  16.3444  2.00628004210542
MOLNIYA 3-41            
1 21706U 91065A   20072.40386650 -.00000459  00000-0  36198-1 0  9997
2 21706  64.2083 252.4215 6791614 265.5797  15.8489  2.04349832210033
MOLNIYA 3-42            
1 22178U 92067A   20071.88392687 -.00000008  00000-0  00000-0 0  9994
2 22178  64.7210 311.8081 6781269 278.7057  15.6686  2.20432135 61932
MOLNIYA 1-86            
1 22671U 93035A   20073.75052014 -.00000022  00000-0  85412-4 0  9993
2 22671  63.1748 354.0821 4823986 355.4325   1.4205  5.62599954305845
MOLNIYA 1-87            
1 22949U 93079A   20073.40479520  .00000351  00000-0  00000-0 0  9996
2 22949  63.3794 183.0235 6856550 289.4978  12.0012  2.02879106 58187
MOLNIYA 1-88            
1 23420U 94081A   20073.77078297 -.00000058  00000-0  56154-3 0  9990
2 23420  64.0506  28.2584 6031376 295.1325  15.2735  3.34495863219321
MOLNIYA 3-47            
1 23642U 95042A   20072.36044338  .00000628  00000-0  16999-1 0  9990
2 23642  63.2208 166.5922 6838711 288.7184  12.3392  2.01977072180333
MOLNIYA 1-90            
1 24960U 97054A   20073.83120910 -.00000082  00000-0  87705-4 0  9994
2 24960  63.3877   2.6343 6389300 300.5388  11.7913  3.18687627181775
MOLNIYA 1-91            
1 25485U 98054A   20072.58102247  .00000036  00000-0  10000-3 0  9993
2 25485  62.7891 290.8652 7149361 288.1310  10.6389  2.36439526158837
MOLNIYA 3-50            
1 25847U 99036A   20071.15647598  .00000431  00000-0 -17251-2 0  9995
2 25847  62.2309 106.8470 7319828 274.5583  13.0310  2.00625368151500
